[{"OBJECT_NAME":"FLOCK 4H-36","OBJECT_ID":"2025-276CB","EPOCH":"2026-03-09T17:10:47.526240","MEAN_MOTION":15.19196799,"ECCENTRICITY":0.00014584,"INCLINATION":97.4313,"RA_OF_ASC_NODE":144.1032,"ARG_OF_PERICENTER":333.1863,"MEAN_ANOMALY":26.9296,"EPHEMERIS_TYPE":0,"CLASSIFICATION_TYPE":"U","NORAD_CAT_ID":66739,"ELEMENT_SET_NO":999,"REV_AT_EPOCH":1532,"BSTAR":0.0003489892,"MEAN_MOTION_DOT":7.279e-5,"MEAN_MOTION_DDOT":0},{"OBJECT_NAME":"FENGYUN 1C DEB","OBJECT_ID":"1999-025BYD","EPOCH":"2026-03-02T20:37:52.103712","MEAN_MOTION":15.19437968,"ECCENTRICITY":0.00147498,"INCLINATION":98.2493,"RA_OF_ASC_NODE":301.6947,"ARG_OF_PERICENTER":10.832,"MEAN_ANOMALY":349.3227,"EPHEMERIS_TYPE":0,"CLASSIFICATION_TYPE":"U","NORAD_CAT_ID":31538,"ELEMENT_SET_NO":999,"REV_AT_EPOCH":68212,"BSTAR":0.0071136993,"MEAN_MOTION_DOT":0.00154158,"MEAN_MOTION_DDOT":0}]
